GLOBALSTAR M063         
1 26081U 00008A   25309.83115294 -.00000091  00000+0 -11770-3 0  9997
2 26081  51.9932  98.5272 0004166 213.1117 294.5385 11.86176984174384
GLOBALSTAR M062         
1 26082U 00008B   25309.50303781 -.00000035  00000+0  45216-3 0  9991
2 26082  51.9865  40.2094 0007431  59.0038 314.0833 12.43476415514204
GLOBALSTAR M060         
1 26083U 00008C   25309.59990120 -.00000165  00000+0 -73150-3 0  9993
2 26083  52.0048  19.9401 0003462  61.9067  86.2531 12.17667640169593
GLOBALSTAR M064         
1 26084U 00008D   25309.76688872 -.00000047  00000+0  51501-3 0  9995
2 26084  52.0013 195.8597 0001695   7.9804 352.1056 11.88537831183937
GLOBALSTAR M065         
1 31571U 07020A   25310.01419662 -.00000037  00000+0  37177-3 0  9994
2 31571  51.9868 154.5880 0009005 262.0088 251.4896 12.62012841851317
GLOBALSTAR M069         
1 31573U 07020C   25309.57675992 -.00000034  00000+0  54220-3 0  9990
2 31573  52.0008 165.0291 0002782  60.1052 315.9137 12.23463024851430
GLOBALSTAR M072         
1 31574U 07020D   25309.53618365 -.00000063  00000+0  29338-3 0  9992
2 31574  51.9954 335.6655 0000993 231.8132 286.1712 11.91652855848313
GLOBALSTAR M071         
1 31576U 07020F   25309.99628814  .00000018  00000+0  10753-2 0  9993
2 31576  52.0047 193.4581 0001817  54.4646  48.5905 12.18261176512227
